OBJECT_NAME,OBJECT_ID,EPOCH,MEAN_MOTION,ECCENTRICITY,INCLINATION,RA_OF_ASC_NODE,ARG_OF_PERICENTER,MEAN_ANOMALY,EPHEMERIS_TYPE,CLASSIFICATION_TYPE,NORAD_CAT_ID,ELEMENT_SET_NO,REV_AT_EPOCH,BSTAR,MEAN_MOTION_DOT,MEAN_MOTION_DDOT
DMSP 5D-3 F16 (USA 172),2003-048A,2026-07-20T15:10:08.623200,14.14484664,.00079613,98.9896,225.6804,57.7175,49.6783,0,U,28054,999,17421,-.12333627E-4,-.69E-6,0
METEOSAT-9 (MSG-2),2005-049B,2026-07-20T04:47:30.027840,1.00274969,.00024377,9.4343,53.8381,358.7484,2.9518,0,U,28912,999,733,0,.116E-5,0
DMSP 5D-3 F17 (USA 191),2006-050A,2026-07-20T13:05:20.292000,14.14996354,.00094173,98.7390,207.4344,326.8620,33.1962,0,U,29522,999,1714,.116165E-4,-.21E-6,0
FENGYUN 3A,2008-026A,2026-07-20T07:34:17.245632,14.19577186,.00094773,98.6886,141.5301,38.4586,321.7264,0,U,32958,999,94010,.35556062E-4,.32E-6,0
EWS-G3 (GOES 14),2009-033A,2026-07-20T11:59:48.168384,1.00095854,.00021389,1.7736,82.6311,39.0154,118.3120,0,U,35491,999,692,0,-.362E-5,0
DMSP 5D-3 F18 (USA 210),2009-057A,2026-07-20T14:08:56.514336,14.14914046,.00115406,98.9060,182.2901,150.6434,209.5389,0,U,35951,999,86431,.11220096E-3,.172E-5,0
EWS-G2 (GOES 15),2010-008A,2026-07-20T11:43:06.446784,1.00269333,.00054389,1.3675,82.4059,53.6365,41.2486,0,U,36411,999,5997,0,.21E-6,0
COMS 1,2010-032A,2026-07-20T11:08:17.286144,0.99166737,.00114442,4.8887,74.9552,15.1250,316.3410,0,U,36744,999,5141,0,-.193E-5,0
FENGYUN 3B,2010-059A,2026-07-20T14:56:40.507584,14.14849647,.00231968,98.9599,247.7760,92.0402,22.6006,0,U,37214,999,81215,.2109244E-3,.363E-5,0
SUOMI NPP,2011-061A,2026-07-20T14:38:14.881344,14.19523309,.00010207,98.7956,142.2589,189.3692,170.7465,0,U,37849,999,76318,.33541795E-4,.26E-6,0
METEOSAT-10 (MSG-3),2012-035B,2026-07-20T07:59:50.157888,1.00272461,.0001404,4.7483,60.8569,17.9341,339.3203,0,U,38552,999,5118,0,-.11E-6,0
METOP-B,2012-049A,2026-07-20T13:19:00.804288,14.21447359,.00012881,98.6486,252.3852,226.6070,133.5000,0,U,38771,999,71800,.35246555E-4,.34E-6,0
INSAT-3D,2013-038B,2026-07-20T12:33:38.670336,1.00273730,.00010375,2.0102,82.1208,43.2874,130.7934,0,U,39216,999,4741,0,-.341E-5,0
FENGYUN 3C,2013-052A,2026-07-20T14:43:38.820864,14.15761468,.00134995,98.5004,173.9579,289.1925,70.7789,0,U,39260,999,66329,.47158094E-4,.51E-6,0
METEOR-M 2,2014-037A,2026-07-20T15:37:38.913312,14.21468841,.0004806,98.5142,176.2083,308.7173,51.3575,0,U,40069,999,62407,-.11361875E-3,-.291E-5,0
HIMAWARI-8,2014-060A,2026-07-20T14:34:38.605728,1.00270174,.00012758,0.0153,53.1610,108.7255,135.8056,0,U,40267,999,4309,0,-.277E-5,0
FENGYUN 2G,2014-090A,2026-07-19T15:21:36.356832,1.00279249,.00039431,5.7192,72.4242,173.6464,21.2039,0,U,40367,999,4232,0,-.309E-5,0
METEOSAT-11 (MSG-4),2015-034A,2026-07-20T06:19:48.504576,1.00273442,.00020409,3.2812,70.8951,355.2226,336.1421,0,U,40732,999,754,0,.58E-6,0
ELEKTRO-L 2,2015-074A,2026-07-20T09:38:18.214080,1.00272287,.00008326,6.7756,70.1150,228.3912,129.7535,0,U,41105,999,3883,0,-.123E-5,0
SENTINEL-3A,2016-011A,2026-07-20T14:21:38.640096,14.26740696,.0001313,98.6233,268.4993,89.0388,271.0943,0,U,41335,999,54282,.29541744E-4,.28E-6,0
INSAT-3DR,2016-054A,2026-07-20T11:46:06.159648,1.00271451,.00103508,0.0830,89.1419,180.3499,279.2812,0,U,41752,999,3615,0,-.78E-6,0
HIMAWARI-9,2016-064A,2026-07-20T14:34:38.605728,1.00273014,.00017032,0.0199,292.3425,228.4234,137.0075,0,U,41836,999,3554,0,-.276E-5,0
GOES 16,2016-071A,2026-07-20T12:16:38.536032,1.00271642,.00006493,0.4174,85.4576,75.5106,216.7751,0,U,41866,999,3543,0,-.92E-6,0
FENGYUN 4A,2016-077A,2026-07-20T15:25:39.011232,1.00265718,.00082136,2.4057,79.9051,159.5268,54.0510,0,U,41882,999,3526,0,-.359E-5,0
CYGFM05,2016-078A,2026-07-20T06:08:32.706240,15.58013309,.00053082,34.9574,41.3756,93.0572,267.0760,0,U,41884,999,53391,.20938862E-3,.16219E-3,0
CYGFM04,2016-078B,2026-07-20T13:35:16.965312,15.63310791,.00042804,34.9330,5.2560,147.8998,212.1989,0,U,41885,999,53422,.24352971E-3,.23177E-3,0
CYGFM02,2016-078C,2026-07-20T13:30:55.265760,15.66640166,.00050326,34.9411,358.7798,148.9969,211.1056,0,U,41886,999,53440,.25664804E-3,.27933E-3,0
CYGFM01,2016-078D,2026-07-19T21:49:39.054720,15.58725490,.00052165,34.9403,44.4582,80.7799,279.3516,0,U,41887,999,53381,.20678698E-3,.16457E-3,0
CYGFM08,2016-078E,2026-07-20T13:51:36.341280,15.61668540,.00059884,34.9438,18.6790,128.7085,231.4177,0,U,41888,999,53419,.23161898E-3,.20667E-3,0
CYGFM07,2016-078G,2026-07-20T12:49:35.814720,15.61777172,.00046997,34.9455,7.2780,146.5867,213.5156,0,U,41890,999,53421,.23175062E-3,.2076E-3,0
CYGFM03,2016-078H,2026-07-20T13:40:14.443104,15.61764306,.00043356,34.9410,8.9715,129.4177,230.6933,0,U,41891,999,53419,.23408341E-3,.20958E-3,0
