DMSP 5D-3 F16 (USA 172) 
1 28054U 03048A   26201.63204425 -.00000069  00000+0 -12334-4 0  9994
2 28054  98.9896 225.6804 0007961  57.7175  49.6783 14.14484664174216
METEOSAT-9 (MSG-2)      
1 28912U 05049B   26201.19965310  .00000116  00000+0  00000+0 0  9991
2 28912   9.4343  53.8381 0002437 358.7484   2.9518  1.00274969  7336
DMSP 5D-3 F17 (USA 191) 
1 29522U 06050A   26201.54537375 -.00000021  00000+0  11616-4 0  9993
2 29522  98.7390 207.4344 0009417 326.8620  33.1962 14.14996354 17143
FENGYUN 3A              
1 32958U 08026A   26201.31547738  .00000032  00000+0  35556-4 0  9994
2 32958  98.6886 141.5301 0009477  38.4586 321.7264 14.19577186940108
EWS-G3 (GOES 14)        
1 35491U 09033A   26201.49986306 -.00000362  00000+0  00000+0 0  9993
2 35491   1.7736  82.6311 0002138  39.0154 118.3120  1.00095854  6920
DMSP 5D-3 F18 (USA 210) 
1 35951U 09057A   26201.58954299  .00000172  00000+0  11220-3 0  9994
2 35951  98.9060 182.2901 0011540 150.6434 209.5389 14.14914046864316
EWS-G2 (GOES 15)        
1 36411U 10008A   26201.48826906  .00000021  00000+0  00000+0 0  9999
2 36411   1.3675  82.4059 0005438  53.6365  41.2486  1.00269333 59977
COMS 1                  
1 36744U 10032A   26201.46408896 -.00000193  00000+0  00000+0 0  9998
2 36744   4.8887  74.9552 0011444  15.1250 316.3410  0.99166737 51418
FENGYUN 3B              
1 37214U 10059A   26201.62269106  .00000363  00000+0  21092-3 0  9993
2 37214  98.9599 247.7760 0023196  92.0402  22.6006 14.14849647812150
SUOMI NPP               
1 37849U 11061A   26201.60989446  .00000026  00000+0  33542-4 0  9995
2 37849  98.7956 142.2589 0001020 189.3692 170.7465 14.19523309763181
METEOSAT-10 (MSG-3)     
1 38552U 12035B   26201.33321942 -.00000011  00000+0  00000+0 0  9993
2 38552   4.7483  60.8569 0001404  17.9341 339.3203  1.00272461 51180
METOP-B                 
1 38771U 12049A   26201.55487042  .00000034  00000+0  35247-4 0  9999
2 38771  98.6486 252.3852 0001288 226.6070 133.5000 14.21447359718006
INSAT-3D                
1 39216U 13038B   26201.52336424 -.00000341  00000+0  00000+0 0  9993
2 39216   2.0102  82.1208 0001037  43.2874 130.7934  1.00273730 47414
FENGYUN 3C              
1 39260U 13052A   26201.61364376  .00000051  00000+0  47158-4 0  9992
2 39260  98.5004 173.9579 0013499 289.1925  70.7789 14.15761468663298
METEOR-M 2              
1 40069U 14037A   26201.65114483 -.00000291  00000+0 -11362-3 0  9996
2 40069  98.5142 176.2083 0004806 308.7173  51.3575 14.21468841624078
HIMAWARI-8              
1 40267U 14060A   26201.60739127 -.00000277  00000+0  00000+0 0  9991
2 40267   0.0153  53.1610 0001275 108.7255 135.8056  1.00270174 43095
FENGYUN 2G              
1 40367U 14090A   26200.64000413 -.00000309  00000+0  00000+0 0  9993
2 40367   5.7192  72.4242 0003943 173.6464  21.2039  1.00279249 42329
METEOSAT-11 (MSG-4)     
1 40732U 15034A   26201.26375584  .00000058  00000+0  00000+0 0  9991
2 40732   3.2812  70.8951 0002040 355.2226 336.1421  1.00273442  7544
ELEKTRO-L 2             
1 41105U 15074A   26201.40159970 -.00000123  00000+0  00000+0 0  9999
2 41105   6.7756  70.1150 0000832 228.3912 129.7535  1.00272287 38831
SENTINEL-3A             
1 41335U 16011A   26201.59836389  .00000028  00000+0  29542-4 0  9992
2 41335  98.6233 268.4993 0001313  89.0388 271.0943 14.26740696542826
INSAT-3DR               
1 41752U 16054A   26201.49034907 -.00000078  00000+0  00000+0 0  9996
2 41752   0.0830  89.1419 0010350 180.3499 279.2812  1.00271451 36154
HIMAWARI-9              
1 41836U 16064A   26201.60739127 -.00000276  00000+0  00000+0 0  9999
2 41836   0.0199 292.3425 0001703 228.4234 137.0075  1.00273014 35544
GOES 16                 
1 41866U 16071A   26201.51155713 -.00000092  00000+0  00000+0 0  9999
2 41866   0.4174  85.4576 0000649  75.5106 216.7751  1.00271642 35438
FENGYUN 4A              
1 41882U 16077A   26201.64281263 -.00000359  00000+0  00000+0 0  9993
2 41882   2.4057  79.9051 0008213 159.5268  54.0510  1.00265718 35265
CYGFM05                 
1 41884U 16078A   26201.25593410  .00016219  00000+0  20939-3 0  9991
2 41884  34.9574  41.3756 0005308  93.0572 267.0760 15.58013309533911
CYGFM04                 
1 41885U 16078B   26201.56616858  .00023177  00000+0  24353-3 0  9993
2 41885  34.9330   5.2560 0004280 147.8998 212.1989 15.63310791534222
CYGFM02                 
1 41886U 16078C   26201.56313965  .00027933  00000+0  25665-3 0  9998
2 41886  34.9411 358.7798 0005032 148.9969 211.1056 15.66640166534407
CYGFM01                 
1 41887U 16078D   26200.90947980  .00016457  00000+0  20679-3 0  9995
2 41887  34.9403  44.4582 0005216  80.7799 279.3516 15.58725490533813
CYGFM08                 
1 41888U 16078E   26201.57750395  .00020667  00000+0  23162-3 0  9990
2 41888  34.9438  18.6790 0005988 128.7085 231.4177 15.61668540534193
CYGFM07                 
1 41890U 16078G   26201.53444230  .00020760  00000+0  23175-3 0  9995
2 41890  34.9455   7.2780 0004699 146.5867 213.5156 15.61777172534215
CYGFM03                 
1 41891U 16078H   26201.56961161  .00020958  00000+0  23408-3 0  9994
2 41891  34.9410   8.9715 0004335 129.4177 230.6933 15.61764306534199
